{
  "norad_id": 67371,
  "name": "UMBRA-12",
  "history": [
    {
      "epoch": "2026-03-28T22:27:10.835712Z",
      "apogee_km": 607.5880630059,
      "perigee_km": 597.2811094474046,
      "latitude_deg": -2.4456239979516237e-05,
      "longitude_deg": -75.28139375910078,
      "height_km": 602.0509642030422,
      "semi_major_axis_km": 6980.571586226652,
      "eccentricity": 0.00073826,
      "inclination_deg": 97.8016,
      "raan_deg": 87.8626,
      "arg_perigee_deg": 48.5914,
      "mean_anomaly_deg": 311.5936,
      "mean_motion_rev_day": 14.88559793
    },
    {
      "epoch": "2026-03-29T00:03:58.661856Z",
      "apogee_km": 607.5814205895058,
      "perigee_km": 597.2781040483233,
      "latitude_deg": 2.1935199669653278e-05,
      "longitude_deg": -99.4806309666923,
      "height_km": 602.0388139928122,
      "semi_major_axis_km": 6980.566762318915,
      "eccentricity": 0.000738,
      "inclination_deg": 97.8016,
      "raan_deg": 87.9289,
      "arg_perigee_deg": 48.4645,
      "mean_anomaly_deg": 311.7204,
      "mean_motion_rev_day": 14.88561336
    },
    {
      "epoch": "2026-03-30T00:15:55.562400Z",
      "apogee_km": 607.4991473981818,
      "perigee_km": 597.2336191227587,
      "latitude_deg": 6.926778894630669e-06,
      "longitude_deg": -102.46863732846282,
      "height_km": 601.8270531752261,
      "semi_major_axis_km": 6980.5033832604695,
      "eccentricity": 0.0007353,
      "inclination_deg": 97.8016,
      "raan_deg": 88.9218,
      "arg_perigee_deg": 46.0098,
      "mean_anomaly_deg": 314.1724,
      "mean_motion_rev_day": 14.88581609
    },
    {
      "epoch": "2026-03-30T06:43:06.574944Z",
      "apogee_km": 607.4799126347143,
      "perigee_km": 597.2310139902302,
      "latitude_deg": 9.061255389889575e-06,
      "longitude_deg": 160.73525937364738,
      "height_km": 601.7782049720552,
      "semi_major_axis_km": 6980.492463312472,
      "eccentricity": 0.00073411,
      "inclination_deg": 97.8016,
      "raan_deg": 89.1866,
      "arg_perigee_deg": 45.3243,
      "mean_anomaly_deg": 314.8571,
      "mean_motion_rev_day": 14.88585102
    },
    {
      "epoch": "2026-03-30T13:10:17.456160Z",
      "apogee_km": 607.4522534607313,
      "perigee_km": 597.2190201846015,
      "latitude_deg": -2.6918350248030007e-05,
      "longitude_deg": 63.93970996757713,
      "height_km": 601.7171047599417,
      "semi_major_axis_km": 6980.472636822667,
      "eccentricity": 0.00073299,
      "inclination_deg": 97.8016,
      "raan_deg": 89.4514,
      "arg_perigee_deg": 44.5801,
      "mean_anomaly_deg": 315.6004,
      "mean_motion_rev_day": 14.88591444
    },
    {
      "epoch": "2026-03-30T22:51:03.658752Z",
      "apogee_km": 607.4016047648802,
      "perigee_km": 597.2231323226315,
      "latitude_deg": 1.112992821102446e-05,
      "longitude_deg": -81.25292852018863,
      "height_km": 601.6590316589427,
      "semi_major_axis_km": 6980.449368543756,
      "eccentricity": 0.00072907,
      "inclination_deg": 97.8016,
      "raan_deg": 89.8488,
      "arg_perigee_deg": 43.6984,
      "mean_anomaly_deg": 316.4809,
      "mean_motion_rev_day": 14.88598887
    },
    {
      "epoch": "2026-03-31T21:26:10.872096Z",
      "apogee_km": 607.2906764940772,
      "perigee_km": 597.2430831494612,
      "latitude_deg": 1.79083810191157e-05,
      "longitude_deg": -60.03363056792191,
      "height_km": 601.5077815767125,
      "semi_major_axis_km": 6980.403879821769,
      "eccentricity": 0.0007197,
      "inclination_deg": 97.8017,
      "raan_deg": 90.7757,
      "arg_perigee_deg": 41.098,
      "mean_anomaly_deg": 319.0778,
      "mean_motion_rev_day": 14.88613438
    }
  ]
}